STARLINK-31889          
1 59847U 24097N   26068.83188917 -.00000121  00000+0  51347-5 0  9991
2 59847  43.0011 273.9797 0001549 270.9288  89.1386 15.27572210101934
BANDWAGON-4 OBJECT M    
1 66304U 25248M   26068.03503276  .00023645  00000+0  95704-3 0  9995
2 66304  45.4108 294.9904 0012944 207.5285 152.4918 15.24295413 18037
